{
  "norad_id": 66485,
  "name": "STARLINK-34774",
  "history": [
    {
      "epoch": "2026-03-28T20:34:37.956000Z",
      "apogee_km": 483.7961522526293,
      "perigee_km": 482.0722395039529,
      "latitude_deg": -2.5439718382102006e-05,
      "longitude_deg": 107.23881097376638,
      "height_km": 482.3553826771405,
      "semi_major_axis_km": 6861.07119587829,
      "eccentricity": 0.00012563,
      "inclination_deg": 42.9996,
      "raan_deg": 242.1688,
      "arg_perigee_deg": 294.3435,
      "mean_anomaly_deg": 65.7285,
      "mean_motion_rev_day": 15.27618373
    },
    {
      "epoch": "2026-03-29T02:51:15.918336Z",
      "apogee_km": 483.4892729571284,
      "perigee_km": 482.64122835894705,
      "latitude_deg": 2.7835409539472183e-05,
      "longitude_deg": 11.34509546655287,
      "height_km": 482.5184971745978,
      "semi_major_axis_km": 6861.202250658038,
      "eccentricity": 6.18e-05,
      "inclination_deg": 43.0007,
      "raan_deg": 240.691,
      "arg_perigee_deg": 319.5523,
      "mean_anomaly_deg": 40.5283,
      "mean_motion_rev_day": 15.27574605
    },
    {
      "epoch": "2026-03-30T02:23:36.424896Z",
      "apogee_km": 483.56742822981596,
      "perigee_km": 482.53824975396583,
      "latitude_deg": -6.551242631399029e-06,
      "longitude_deg": 11.752501764416749,
      "height_km": 482.56233650387674,
      "semi_major_axis_km": 6861.189838991891,
      "eccentricity": 7.5e-05,
      "inclination_deg": 43.0025,
      "raan_deg": 235.1506,
      "arg_perigee_deg": 301.2368,
      "mean_anomaly_deg": 58.841,
      "mean_motion_rev_day": 15.2757875
    },
    {
      "epoch": "2026-03-30T02:23:36.425760Z",
      "apogee_km": 483.5671537822218,
      "perigee_km": 482.53852420156,
      "latitude_deg": -9.252163402461313e-06,
      "longitude_deg": 11.752495274449961,
      "height_km": 482.5624788070403,
      "semi_major_axis_km": 6861.189838991891,
      "eccentricity": 7.496e-05,
      "inclination_deg": 43.0025,
      "raan_deg": 235.1506,
      "arg_perigee_deg": 301.2368,
      "mean_anomaly_deg": 58.841,
      "mean_motion_rev_day": 15.2757875
    },
    {
      "epoch": "2026-03-30T10:14:23.633952Z",
      "apogee_km": 483.2406560977088,
      "perigee_km": 482.8095006727035,
      "latitude_deg": -1.5600637013322418e-05,
      "longitude_deg": -108.10885403975142,
      "height_km": 482.60578515075616,
      "semi_major_axis_km": 6861.162078385206,
      "eccentricity": 3.142e-05,
      "inclination_deg": 42.9923,
      "raan_deg": 233.3082,
      "arg_perigee_deg": 26.018,
      "mean_anomaly_deg": 334.0687,
      "mean_motion_rev_day": 15.27588021
    },
    {
      "epoch": "2026-03-30T18:05:10.409280Z",
      "apogee_km": 484.079242162843,
      "perigee_km": 482.0075773499211,
      "latitude_deg": 7.924702352764542e-07,
      "longitude_deg": 132.02592944657516,
      "height_km": 482.9507288390369,
      "semi_major_axis_km": 6861.180409756382,
      "eccentricity": 0.00015097,
      "inclination_deg": 42.999,
      "raan_deg": 231.4601,
      "arg_perigee_deg": 262.753,
      "mean_anomaly_deg": 97.315,
      "mean_motion_rev_day": 15.27581899
    },
    {
      "epoch": "2026-03-31T19:11:40.783776Z",
      "apogee_km": 483.91564100836877,
      "perigee_km": 482.0892056938719,
      "latitude_deg": 1.883677987244014e-05,
      "longitude_deg": 108.45922281545641,
      "height_km": 482.64466178197546,
      "semi_major_axis_km": 6861.13942335112,
      "eccentricity": 0.0001331,
      "inclination_deg": 43.0006,
      "raan_deg": 225.5511,
      "arg_perigee_deg": 278.4679,
      "mean_anomaly_deg": 81.6022,
      "mean_motion_rev_day": 15.27595587
    },
    {
      "epoch": "2026-04-01T15:35:42.790848Z",
      "apogee_km": 483.8280619790685,
      "perigee_km": 482.18550415740265,
      "latitude_deg": 3.462985914118953e-05,
      "longitude_deg": 156.81375681470763,
      "height_km": 482.80863518316426,
      "semi_major_axis_km": 6861.143783068235,
      "eccentricity": 0.0001197,
      "inclination_deg": 42.9994,
      "raan_deg": 220.7518,
      "arg_perigee_deg": 268.2279,
      "mean_anomaly_deg": 91.8436,
      "mean_motion_rev_day": 15.27594131
    },
    {
      "epoch": "2026-04-02T16:42:12.845664Z",
      "apogee_km": 483.4003137314576,
      "perigee_km": 482.57835079685265,
      "latitude_deg": 1.6562972114258825e-06,
      "longitude_deg": 133.25103093265756,
      "height_km": 482.76834886546635,
      "semi_major_axis_km": 6861.126332264155,
      "eccentricity": 5.99e-05,
      "inclination_deg": 43.0007,
      "raan_deg": 214.8455,
      "arg_perigee_deg": 269.5892,
      "mean_anomaly_deg": 90.4891,
      "mean_motion_rev_day": 15.27599959
    },
    {
      "epoch": "2026-04-02T16:42:12.846528Z",
      "apogee_km": 483.40058817651243,
      "perigee_km": 482.5780763517996,
      "latitude_deg": 4.801017071444999e-06,
      "longitude_deg": 133.25103067638292,
      "height_km": 482.768350833129,
      "semi_major_axis_km": 6861.126332264155,
      "eccentricity": 5.994e-05,
      "inclination_deg": 43.0007,
      "raan_deg": 214.8455,
      "arg_perigee_deg": 269.5892,
      "mean_anomaly_deg": 90.4891,
      "mean_motion_rev_day": 15.27599959
    },
    {
      "epoch": "2026-04-03T16:14:33.242496Z",
      "apogee_km": 483.6989660111276,
      "perigee_km": 482.2265740004832,
      "latitude_deg": -6.011192029172012e-06,
      "longitude_deg": 133.6568237738975,
      "height_km": 482.8006261889343,
      "semi_major_axis_km": 6861.099770005805,
      "eccentricity": 0.0001073,
      "inclination_deg": 42.9998,
      "raan_deg": 209.303,
      "arg_perigee_deg": 265.2105,
      "mean_anomaly_deg": 94.8624,
      "mean_motion_rev_day": 15.2760883
    },
    {
      "epoch": "2026-04-04T14:12:44.994816Z",
      "apogee_km": 484.0253585800074,
      "perigee_km": 482.0218996763015,
      "latitude_deg": -1.9863567718245403e-05,
      "longitude_deg": 158.0357673999255,
      "height_km": 482.4579064072749,
      "semi_major_axis_km": 6861.160629128154,
      "eccentricity": 0.000146,
      "inclination_deg": 42.9992,
      "raan_deg": 204.1332,
      "arg_perigee_deg": 289.9848,
      "mean_anomaly_deg": 70.0846,
      "mean_motion_rev_day": 15.27588505
    },
    {
      "epoch": "2026-04-05T13:45:07.811712Z",
      "apogee_km": 484.1634862853025,
      "perigee_km": 481.9663922003183,
      "latitude_deg": -3.846015278578808e-06,
      "longitude_deg": 158.4343727165893,
      "height_km": 482.8274376546647,
      "semi_major_axis_km": 6861.20193924281,
      "eccentricity": 0.00016011,
      "inclination_deg": 42.9952,
      "raan_deg": 198.5936,
      "arg_perigee_deg": 270.7216,
      "mean_anomaly_deg": 89.3452,
      "mean_motion_rev_day": 15.27574709
    }
  ]
}